{"type": "FeatureCollection", "features": [ {"type": "Feature", "properties": {"norad_id": 66920, "name": "HULIANWANG DIGUI-110", "group": "last-30-days", "lat": -39.27186281763813, "lon": 14.680999199489557, "alt_km": 883.6904654161763, "timestamp": "2025-12-27T06:41:29.620844+00:00", "meta": {"OBJECT_NAME": "HULIANWANG DIGUI-110", "OBJECT_ID": "2025-285F", "EPOCH": "2025-12-26T22:24:33.648192", "MEAN_MOTION": 14.03114696, "ECCENTRICITY": 0.00057006, "INCLINATION": 50.0122, "RA_OF_ASC_NODE": 59.4183, "ARG_OF_PERICENTER": 338.2758, "MEAN_ANOMALY": 21.7904, "EPHEMERIS_TYPE": 0, "CLASSIFICATION_TYPE": "U", "NORAD_CAT_ID": 66920, "ELEMENT_SET_NO": 999, "REV_AT_EPOCH": 290, "BSTAR": 2.3433242e-05, "MEAN_MOTION_DOT": -1.15e-06, "MEAN_MOTION_DDOT": 0}, "tle": {"line1": "1 66920U 25285F   25360.93372278 -.00000115  00000+0  23433-4 0  9998", "line2": "2 66920  50.0122  59.4183 0005700 338.2758  21.7904 14.03114696  2902"}}, "geometry": {"type": "Point", "coordinates": [14.680999199489557, -39.27186281763813]}}, {"type": "Feature", "properties": {"norad_id": 66921, "name": "HULIANWANG DIGUI-111", "group": "last-30-days", "lat": -36.803212753664575, "lon": 19.113863867327225, "alt_km": 882.2507186164539, "timestamp": "2025-12-27T06:41:29.620854+00:00", "meta": {"OBJECT_NAME": "HULIANWANG DIGUI-111", "OBJECT_ID": "2025-285G", "EPOCH": "2025-12-26T22:23:24.693216", "MEAN_MOTION": 14.03318142, "ECCENTRICITY": 0.00065606, "INCLINATION": 50.0127, "RA_OF_ASC_NODE": 59.4178, "ARG_OF_PERICENTER": 340.4052, "MEAN_ANOMALY": 19.66, "EPHEMERIS_TYPE": 0, "CLASSIFICATION_TYPE": "U", "NORAD_CAT_ID": 66921, "ELEMENT_SET_NO": 999, "REV_AT_EPOCH": 290, "BSTAR": 2.4317858e-05, "MEAN_MOTION_DOT": -1.13e-06, "MEAN_MOTION_DDOT": 0}, "tle": {"line1": "1 66921U 25285G   25360.93292469 -.00000113  00000+0  24318-4 0  9993", "line2": "2 66921  50.0127  59.4178 0006560 340.4052  19.6600 14.03318142  2900"}}, "geometry": {"type": "Point", "coordinates": [19.113863867327225, -36.803212753664575]}}, {"type": "Feature", "properties": {"norad_id": 66922, "name": "HULIANWANG DIGUI-112", "group": "last-30-days", "lat": -32.94088265767089, "lon": 25.044573872198583, "alt_km": 881.8888748114632, "timestamp": "2025-12-27T06:41:29.620866+00:00", "meta": {"OBJECT_NAME": "HULIANWANG DIGUI-112", "OBJECT_ID": "2025-285H", "EPOCH": "2025-12-26T22:21:40.970880", "MEAN_MOTION": 14.03439973, "ECCENTRICITY": 0.00065887, "INCLINATION": 50.0101, "RA_OF_ASC_NODE": 59.4026, "ARG_OF_PERICENTER": 352.7149, "MEAN_ANOMALY": 7.3659, "EPHEMERIS_TYPE": 0, "CLASSIFICATION_TYPE": "U", "NORAD_CAT_ID": 66922, "ELEMENT_SET_NO": 999, "REV_AT_EPOCH": 290, "BSTAR": 8.7557181e-05, "MEAN_MOTION_DOT": -1.4e-07, "MEAN_MOTION_DDOT": 0}, "tle": {"line1": "1 66922U 25285H   25360.93172420 -.00000014  00000+0  87557-4 0  9992", "line2": "2 66922  50.0101  59.4026 0006588 352.7149   7.3659 14.03439973  2902"}}, "geometry": {"type": "Point", "coordinates": [25.044573872198583, -32.94088265767089]}}, {"type": "Feature", "properties": {"norad_id": 66923, "name": "HULIANWANG DIGUI-113", "group": "last-30-days", "lat": -28.34938007123091, "lon": 31.050779335633603, "alt_km": 881.5612305958584, "timestamp": "2025-12-27T06:41:29.620877+00:00", "meta": {"OBJECT_NAME": "HULIANWANG DIGUI-113", "OBJECT_ID": "2025-285J", "EPOCH": "2025-12-26T22:19:45.433344", "MEAN_MOTION": 14.03555639, "ECCENTRICITY": 0.0005057, "INCLINATION": 50.0098, "RA_OF_ASC_NODE": 59.3974, "ARG_OF_PERICENTER": 345.0579, "MEAN_ANOMALY": 15.0175, "EPHEMERIS_TYPE": 0, "CLASSIFICATION_TYPE": "U", "NORAD_CAT_ID": 66923, "ELEMENT_SET_NO": 999, "REV_AT_EPOCH": 290, "BSTAR": 2.6625483e-05, "MEAN_MOTION_DOT": -1.09e-06, "MEAN_MOTION_DDOT": 0}, "tle": {"line1": "1 66923U 25285J   25360.93038696 -.00000109  00000+0  26625-4 0  9993", "line2": "2 66923  50.0098  59.3974 0005057 345.0579  15.0175 14.03555639  2908"}}, "geometry": {"type": "Point", "coordinates": [31.050779335633603, -28.34938007123091]}}, {"type": "Feature", "properties": {"norad_id": 66924, "name": "CZ-8A R/B", "group": "last-30-days", "lat": 49.98576138295651, "lon": 143.21990745708075, "alt_km": 751.0589340371926, "timestamp": "2025-12-27T06:41:29.620889+00:00", "meta": {"OBJECT_NAME": "CZ-8A R/B", "OBJECT_ID": "2025-285K", "EPOCH": "2025-12-26T20:12:47.363040", "MEAN_MOTION": 14.30507379, "ECCENTRICITY": 0.01192354, "INCLINATION": 50.0086, "RA_OF_ASC_NODE": 56.1249, "ARG_OF_PERICENTER": 156.451, "MEAN_ANOMALY": 204.1928, "EPHEMERIS_TYPE": 0, "CLASSIFICATION_TYPE": "U", "NORAD_CAT_ID": 66924, "ELEMENT_SET_NO": 999, "REV_AT_EPOCH": 294, "BSTAR": 7.6171995e-05, "MEAN_MOTION_DOT": 5e-07, "MEAN_MOTION_DDOT": 0}, "tle": {"line1": "1 66924U 25285K   25360.84221485  .00000050  00000+0  76172-4 0  9990", "line2": "2 66924  50.0086  56.1249 0119235 156.4510 204.1928 14.30507379  2948"}}, "geometry": {"type": "Point", "coordinates": [143.21990745708075, 49.98576138295651]}}, {"type": "Feature", "properties": {"norad_id": 66925, "name": "STARLINK-35945", "group": "last-30-days", "lat": -28.54841573807006, "lon": -45.89248263730196, "alt_km": 409.8018885817801, "timestamp": "2025-12-27T06:41:29.620900+00:00", "meta": {"OBJECT_NAME": "STARLINK-35945", "OBJECT_ID": "2025-286A", "EPOCH": "2025-12-26T22:00:01.999584", "MEAN_MOTION": 15.55464483, "ECCENTRICITY": 0.00013542, "INCLINATION": 53.1595, "RA_OF_ASC_NODE": 339.9261, "ARG_OF_PERICENTER": 87.8756, "MEAN_ANOMALY": 7.6446, "EPHEMERIS_TYPE": 0, "CLASSIFICATION_TYPE": "U", "NORAD_CAT_ID": 66925, "ELEMENT_SET_NO": 999, "REV_AT_EPOCH": 426, "BSTAR": -0.032430307, "MEAN_MOTION_DOT": -0.02013767, "MEAN_MOTION_DDOT": 0}, "tle": {"line1": "1 66925U 25286A   25360.91668981 -.02013767  00000+0 -32430-1 0  9995", "line2": "2 66925  53.1595 339.9261 0001354  87.8756   7.6446 15.55464483  4269"}}, "geometry": {"type": "Point", "coordinates": [-45.89248263730196, -28.54841573807006]}}, {"type": "Feature", "properties": {"norad_id": 66926, "name": "STARLINK-35942", "group": "last-30-days", "lat": -46.33657818327703, "lon": -73.53576335883687, "alt_km": 416.56522392697025, "timestamp": "2025-12-27T06:41:29.620911+00:00", "meta": {"OBJECT_NAME": "STARLINK-35942", "OBJECT_ID": "2025-286B", "EPOCH": "2025-12-26T22:00:01.999584", "MEAN_MOTION": 15.53503683, "ECCENTRICITY": 0.00011128, "INCLINATION": 53.1593, "RA_OF_ASC_NODE": 339.9778, "ARG_OF_PERICENTER": 86.313, "MEAN_ANOMALY": 343.6906, "EPHEMERIS_TYPE": 0, "CLASSIFICATION_TYPE": "U", "NORAD_CAT_ID": 66926, "ELEMENT_SET_NO": 999, "REV_AT_EPOCH": 426, "BSTAR": -0.034896583, "MEAN_MOTION_DOT": -0.02015197, "MEAN_MOTION_DDOT": 0}, "tle": {"line1": "1 66926U 25286B   25360.91668981 -.02015197  00000+0 -34897-1 0  9994", "line2": "2 66926  53.1593 339.9778 0001112  86.3130 343.6906 15.53503683  4261"}}, "geometry": {"type": "Point", "coordinates": [-73.53576335883687, -46.33657818327703]}}, {"type": "Feature", "properties": {"norad_id": 66927, "name": "STARLINK-35943", "group": "last-30-days", "lat": -45.364948987669074, "lon": -71.17494281495323, "alt_km": 416.57656827350183, "timestamp": "2025-12-27T06:41:29.620921+00:00", "meta": {"OBJECT_NAME": "STARLINK-35943", "OBJECT_ID": "2025-286C", "EPOCH": "2025-12-26T22:00:01.999584", "MEAN_MOTION": 15.53504091, "ECCENTRICITY": 0.00011747, "INCLINATION": 53.1591, "RA_OF_ASC_NODE": 339.9736, "ARG_OF_PERICENTER": 88.5926, "MEAN_ANOMALY": 343.3281, "EPHEMERIS_TYPE": 0, "CLASSIFICATION_TYPE": "U", "NORAD_CAT_ID": 66927, "ELEMENT_SET_NO": 999, "REV_AT_EPOCH": 426, "BSTAR": -0.034953681, "MEAN_MOTION_DOT": -0.02018208, "MEAN_MOTION_DDOT": 0}, "tle": {"line1": "1 66927U 25286C   25360.91668981 -.02018208  00000+0 -34954-1 0  9995", "line2": "2 66927  53.1591 339.9736 0001174  88.5926 343.3281 15.53504091  4266"}}, "geometry": {"type": "Point", "coordinates": [-71.17494281495323, -45.364948987669074]}}, {"type": "Feature", "properties": {"norad_id": 66928, "name": "STARLINK-35944", "group": "last-30-days", "lat": -47.258724161785814, "lon": -75.98403907733197, "alt_km": 416.6717856790374, "timestamp": "2025-12-27T06:41:29.620933+00:00", "meta": {"OBJECT_NAME": "STARLINK-35944", "OBJECT_ID": "2025-286D", "EPOCH": "2025-12-26T22:00:01.999584", "MEAN_MOTION": 15.53505495, "ECCENTRICITY": 0.00012119, "INCLINATION": 53.1593, "RA_OF_ASC_NODE": 339.9812, "ARG_OF_PERICENTER": 84.8799, "MEAN_ANOMALY": 343.207, "EPHEMERIS_TYPE": 0, "CLASSIFICATION_TYPE": "U", "NORAD_CAT_ID": 66928, "ELEMENT_SET_NO": 999, "REV_AT_EPOCH": 426, "BSTAR": -0.03501213, "MEAN_MOTION_DOT": -0.02021339, "MEAN_MOTION_DDOT": 0}, "tle": {"line1": "1 66928U 25286D   25360.91668981 -.02021339  00000+0 -35012-1 0  9991", "line2": "2 66928  53.1593 339.9812 0001211  84.8799 343.2070 15.53505495  4267"}}, "geometry": {"type": "Point", "coordinates": [-75.98403907733197, -47.258724161785814]}}, {"type": "Feature", "properties": {"norad_id": 66929, "name": "STARLINK-36169", "group": "last-30-days", "lat": -44.34632171487101, "lon": -68.89350514899057, "alt_km": 416.61561777852967, "timestamp": "2025-12-27T06:41:29.620945+00:00", "meta": {"OBJECT_NAME": "STARLINK-36169", "OBJECT_ID": "2025-286E", "EPOCH": "2025-12-26T22:00:01.999584", "MEAN_MOTION": 15.535071, "ECCENTRICITY": 0.00012791, "INCLINATION": 53.1598, "RA_OF_ASC_NODE": 339.97, "ARG_OF_PERICENTER": 92.0068, "MEAN_ANOMALY": 341.8295, "EPHEMERIS_TYPE": 0, "CLASSIFICATION_TYPE": "U", "NORAD_CAT_ID": 66929, "ELEMENT_SET_NO": 999, "REV_AT_EPOCH": 426, "BSTAR": -0.035037763, "MEAN_MOTION_DOT": -0.02022807, "MEAN_MOTION_DDOT": 0}, "tle": {"line1": "1 66929U 25286E   25360.91668981 -.02022807  00000+0 -35038-1 0  9991", "line2": "2 66929  53.1598 339.9700 0001279  92.0068 341.8295 15.53507100  4261"}}, "geometry": {"type": "Point", "coordinates": [-68.89350514899057, -44.34632171487101]}}]}